[{"OBJECT_NAME":"EGYPTSAT-A (MISRSAT-A)","OBJECT_ID":"2019-008A","EPOCH":"2026-03-09T23:42:01.937952","MEAN_MOTION":14.72293505,"ECCENTRICITY":0.00010879,"INCLINATION":98.0143,"RA_OF_ASC_NODE":135.2007,"ARG_OF_PERICENTER":85.2157,"MEAN_ANOMALY":274.9175,"EPHEMERIS_TYPE":0,"CLASSIFICATION_TYPE":"U","NORAD_CAT_ID":44047,"ELEMENT_SET_NO":999,"REV_AT_EPOCH":37864,"BSTAR":9.9362666e-5,"MEAN_MOTION_DOT":5.78e-6,"MEAN_MOTION_DDOT":0},{"OBJECT_NAME":"PUNCH-WFI 3 (SMEX 15D)","OBJECT_ID":"2025-047C","EPOCH":"2026-03-09T15:33:49.952448","MEAN_MOTION":14.74226556,"ECCENTRICITY":0.00111539,"INCLINATION":97.9538,"RA_OF_ASC_NODE":255.5249,"ARG_OF_PERICENTER":124.4994,"MEAN_ANOMALY":235.7269,"EPHEMERIS_TYPE":0,"CLASSIFICATION_TYPE":"U","NORAD_CAT_ID":63180,"ELEMENT_SET_NO":999,"REV_AT_EPOCH":5339,"BSTAR":0.00013724614,"MEAN_MOTION_DOT":8.58e-6,"MEAN_MOTION_DDOT":0}]
